HAWK-2C                 
1 47502U 21006CT  26068.67595434  .00008129  00000+0  25493-3 0  9997
2 47502  97.2417 114.9961 0006943 184.0877 176.0310 15.33286436284247
STARLINK-32816          
1 63050U 25034X   26068.88097850  .00030074  00000+0  10233-2 0  9999
2 63050  53.1603 270.1885 0000856  94.5988 265.5110 15.30202650 58936
